#aP1999  8  1  0  0  0.00000000      96 ORBIT ITR97 HLM  IGS
## 1021      0.00000000   900.00000000 51391 0.0000000000000
+   27     1  2  3  4  5  6  7  8  9 10 13 14 15 16 17 18 19
+         21 22 23 24 25 26 27 29 30 31  0  0  0  0  0  0  0
+          0  0  0  0  0  0  0  0  0  0  0  0  0  0  0  0  0
+          0  0  0  0  0  0  0  0  0  0  0  0  0  0  0  0  0
+          0  0  0  0  0  0  0  0  0  0  0  0  0  0  0  0  0
++         5  4  4  4  4  4  4  4  4  4  5  4  4  4  4  5  4
++         4  4  5  5  4  5  4  4  4  4  0  0  0  0  0  0  0
++         0  0  0  0  0  0  0  0  0  0  0  0  0  0  0  0  0
++         0  0  0  0  0  0  0  0  0  0  0  0  0  0  0  0  0
++         0  0  0  0  0  0  0  0  0  0  0  0  0  0  0  0  0
%c cc cc ccc ccc cccc cccc cccc cccc ccccc ccccc ccccc ccccc
%c cc cc ccc ccc cccc cccc cccc cccc ccccc ccccc ccccc ccccc
%f  0.0000000  0.000000000  0.00000000000  0.000000000000000
%f  0.0000000  0.000000000  0.00000000000  0.000000000000000
%i    0    0    0    0      0      0      0      0         0
%i    0    0    0    0      0      0      0      0         0
/* FINAL ORBIT COMBINATION FROM WEIGHTED AVERAGE OF:
/* cod emr esa gfz jpl ngs sio
/* REFERENCED TO GPS CLOCK AND TO WEIGHTED MEAN POLE:
/* CLK ANT Z-OFFSET (M): II/IIA 1.023; IIR 0.000
*  1999  8  1 18 45  0.0000
P  1 -14300.785395   5171.883738 -21631.219389     93.284253
P  2  20927.015884  12036.757621  12176.651303    -92.432564
P  3 -15688.877304   1908.690344  21310.860993     28.029710
P  4  16891.243314   1941.700290 -20355.899138    485.952569
P  5  10557.631774 -13402.813731 -20334.403802    210.391667
P  6  -4705.963983 -25559.919381  -4607.376766     -0.014681
P  7  15166.290294  18569.995216 -11438.029520    574.621871
P  8   6429.356943 -21642.752889 -14356.935651     13.260430
P  9  16244.543731 -20690.818525  -1635.160381     -4.554061
P 10  24763.777292  -1738.662323   9689.166808     39.155159
P 13  16264.386300  13931.987761  15807.497403    -63.301842
P 14  -7270.590617  13343.178702 -21806.456091     28.274736
P 15 -16105.244306  20601.612253  -4828.910174    710.336745
P 16   5631.711415  15912.443246 -20601.188202    128.560698
P 17  -1560.078846 -16840.509064  20224.949649   -217.414202
P 18   7096.581985  25356.050327  -3353.551348     25.803737
P 19   -927.519207  21037.819757  16123.867821     22.347923
P 21 -23380.861613 -10626.919380   8217.513551     26.138914
P 22 -26608.112665  -2191.916900   2623.899852    432.194594
P 23 -11487.051748 -15839.109329  18491.284630      3.300207
P 24  20892.808392 -10102.028643 -12577.706812    590.564375
P 25 -17670.231770   -922.104759 -19548.037432      1.834947
P 26  10891.939833 -12702.437668  20505.546988    661.211504
P 27  10733.356455  11557.045706  21447.862610     27.590558
P 29 -15197.447127 -18454.291370 -11496.679258    520.622433
P 30  -2912.181694 -16072.553466 -21112.602485    -27.008223
P 31  -8610.571741  16080.149597  18995.028696     22.490730
*  1999  8  1 19  0  0.0000
P  1 -15107.278581   2804.297014 -21522.884082     93.245498
P  2  19482.148899  12093.022863  14365.675288    -92.349822
P  3 -16532.291119   -359.269381  20747.665614     28.015494
P  4  15371.033278   3790.815295 -21259.003742    486.057848
P  5  12800.453674 -12993.292520 -19278.296155    210.115359
P  6  -4196.457101 -24991.391536  -7349.695446     -0.099705
P  7  15389.913187  19768.053867  -8946.360086    574.659058
P  8   7545.587320 -22616.624420 -12095.809977     13.624604
P  9  16511.815737 -20488.371270   1208.279860     -4.392129
P 10  25668.642558  -1387.435500   7039.499693     39.197058
P 13  16681.120196  15566.891035  13707.055919    -63.381419
P 14  -9657.392536  12779.763831 -21210.695091     28.372962
P 15 -16490.028440  20735.638496  -1962.626100    710.340903
P 16   3288.734255  15448.574936 -21429.877469    128.606053
P 17    133.551739 -18354.539892  18887.124205   -217.571792
P 18   6630.340779  24989.844030  -6119.660048     25.757249
P 19  -2150.745816  22300.276046  14164.058163     22.447034
P 21 -22331.610574 -10600.270609  10778.365747     26.101616
P 22 -26731.275413  -2496.907117   -144.760456    432.102144
P 23  -9407.516545 -15478.576687  19925.589905      3.407356
P 24  19943.865575  -8793.915320 -14854.263452    590.648520
P 25 -16367.182836  -2872.438561 -20483.894604      1.817330
P 26  11799.705751 -10479.000820  21294.891380    661.179812
P 27   9193.205488  13423.962907  21013.852213     27.657451
P 29 -15426.267668 -19650.548455  -8992.124471    520.506825
P 30   -523.347564 -15743.168134 -21553.097667    -26.895345
P 31  -9565.088252  13992.696333  20169.192932     22.443553
*  1999  8  1 19 15  0.0000
P  1 -16021.294858    512.905538 -21039.358583     93.340855
P  2  17814.873326  12208.770093  16320.857496    -92.455334
P  3 -17451.277787  -2506.732694  19826.301606     28.056465
P  4  13903.255593   5786.898582 -21794.076244    486.136161
P  5  14923.329322 -12702.214600 -17889.670632    210.297674
P  6  -3539.754937 -24167.781802  -9962.988052     -0.099051
P  7  15554.885214  20686.595643  -6301.406528    574.789203
P  8   8448.756666 -23438.378618  -9630.572786     13.299831
P  9  16601.502816 -20035.613926   4030.390383     -4.431168
P 10  26286.929797  -1118.623260   4269.922414     39.195196
P 13  17082.279116  16948.492262  11372.225840    -63.311865
P 14 -11984.255826  12361.446003 -20250.766186     28.282354
P 15 -16659.344815  20638.190644    937.392213    710.346035
P 16    850.327080  15101.111598 -21892.367884    128.688448
P 17   1628.711587 -19832.780467  17215.992526   -217.428643
P 18   6013.787954  24372.095993  -8780.566409     25.785038
P 19  -3189.315270  23420.699695  11958.996993     22.374158
P 21 -21009.025425 -10600.583261  13161.969788     26.258517
P 22 -26561.666982  -2774.038704  -2911.024405    432.242587
P 23  -7171.713951 -15212.338175  21030.847442      3.406624
P 24  18918.043742  -7239.167252 -16869.822804    590.640037
P 25 -15111.560753  -4952.779918 -21059.897410      1.772251
P 26  12846.504590  -8247.412468  21715.539611    661.022845
P 27   7781.319113  15311.762960  20218.921534     27.641759
P 29 -15594.161144 -20566.329735  -6332.630662    520.599054
P 30   1907.698798 -15531.171510 -21628.336022    -27.016247
P 31 -10669.694003  11853.765208  20987.774435     22.370593
*  1999  8  1 19 30  0.0000
P  1 -17018.153195  -1659.641587 -20189.278138     93.191061
P  2  15955.113310  12410.137743  18010.714037    -92.380979
P  3 -18415.706573  -4497.867403  18562.667358     27.904534
P  4  12523.612221   7894.529900 -21951.207241    486.138357
P  5  16884.001409 -12514.692380 -16192.312844    210.059739
P  6  -2713.071071 -23120.584580 -12401.266172     -0.090648
P  7  15623.413451  21325.445708  -3548.914609    574.623420
P  8   9149.643616 -24069.301420  -7002.392504     13.382134
P  9  16545.964790 -19316.929352   6781.294284     -4.349783
P 10  26602.352309   -896.918797   1427.629946     39.030334
P 13  17428.495790  18063.650724   8842.889674    -63.411115
P 14 -14202.503747  12082.551286 -18943.170818     28.344421
P 15 -16642.305874  20283.067817   3821.213350    710.349476
P 16  -1636.111403  14883.569173 -21980.231851    128.653580
P 17   2913.172919 -21227.621626  15240.215314   -217.589842
P 18   5224.122123  23533.255403 -11290.953135     25.751424
P 19  -4050.831514  24359.980732   9546.492659     22.274333
P 21 -19434.835448 -10662.268027  15329.019290     26.066004
P 22 -26100.833512  -3058.343305  -5628.874090    432.230266
P 23  -4820.790344 -15061.508581  21788.833112      3.365445
P 24  17859.927934  -5451.040209 -18588.445817    590.675865
P 25 -13935.175422  -7127.294842 -21266.474138      1.986876
P 26  14017.668781  -6054.707423  21761.884153    661.012419
P 27   6515.059100  17176.699839  19074.878710     27.578220
P 29 -15662.783624 -21201.259426  -3564.308447    520.626606
P 30   4334.393951 -15441.729265 -21337.031141    -26.947212
P 31 -11913.573714   9711.270807  21436.952529     22.543974
*  1999  8  1 19 45  0.0000
P  1 -18066.908440  -3675.963316 -18987.728352     93.137349
P  2  13937.856027  12717.790412  19407.879421    -92.275299
P  3 -19390.576882  -6303.153890  16978.586709     27.958502
P  4  11261.723920  10072.433402 -21727.066025    486.031889
P  5  18644.682735 -12409.247762 -14215.377510    210.227336
P  6  -1700.425539 -21886.981628 -14621.635260     -0.131246
P  7  15559.442896  21692.903810   -736.081244    574.850897
P  8   9666.283328 -24474.798699  -4255.391314     13.596039
P  9  16381.152393 -18324.934441   9412.303611     -4.403157
P 10  26607.195280   -684.832551  -1438.972216     39.094308
P 13  17679.911095  18907.808276   6162.260002    -63.343765
P 14 -16266.126053  11929.375379 -17310.361823     28.403166
P 15 -16473.389696  19651.624220   6638.893644    710.352637
P 16  -4121.196955  14801.422512 -21691.400166    128.642257
P 17   3983.673801 -22491.596687  12994.148725   -217.554776
P 18   4245.044076  22509.083674 -13608.326672     25.684878
P 19  -4750.051189  25082.839079   6968.118783     22.527565
P 21 -17637.864459 -10815.534910  17243.548005     26.040936
P 22 -25358.205472  -3384.030826  -8253.210101    432.064136
P 23  -2399.538782 -15039.970063  22186.812168      3.279434
P 24  16812.386998  -3451.788285 -19979.429208    590.727972
P 25 -12863.771553  -9355.269244 -21100.674649      1.949388
P 26  15291.119660  -3944.658369  21434.800601    661.110387
P 27   5404.270732  18973.194841  17599.738777     27.702594
P 29 -15595.589441 -21563.565652   -734.885613    520.669438
P 30   6710.037770 -15472.255068 -20684.012231    -27.036719
P 31 -13278.036041   7611.177056  21509.589652     22.444364
EOF
